ORBCOMM FM33            
1 25983U 99065D   25121.74741399  .00001699  00000+0  58019-3 0  9991
2 25983  45.0274 219.7325 0009859 196.1710 163.8825 14.39901732329440
ORBCOMM FM36            
1 25984U 99065E   25121.92937715  .00002033  00000+0  71261-3 0  9998
2 25984  45.0394 310.0933 0003246  81.3265 278.7952 14.38006038328358
ORBCOMM FM35            
1 25985U 99065F   25121.94566745  .00001700  00000+0  61559-3 0  9991
2 25985  45.0396 314.6857 0004060 162.0863 198.0130 14.36995460328325
ORBCOMM FM34            
1 25986U 99065G   25121.91258631  .00001607  00000+0  58415-3 0  9994
2 25986  45.0399 315.3232 0004243 114.3593 245.7699 14.37028026328288
ORBCOMM FM38            
1 33060U 08031A   25121.66715365  .00002841  00000+0  38876-3 0  9993
2 33060  48.4384 176.9150 0005226 207.7473 152.3164 14.81136466907849
ORBCOMM FM41            
1 33061U 08031B   25121.68476661  .00002434  00000+0  34030-3 0  9995
2 33061  48.4421 184.4502 0004270 194.3250 311.6969 14.80727411907780
ORBCOMM FM29            
1 33062U 08031C   25121.74099481  .00003159  00000+0  43228-3 0  9998
2 33062  48.4371 192.0476 0006001 190.9405 322.2750 14.80823525907653
ORBCOMM FM39            
1 33063U 08031D   25121.76553915  .00002806  00000+0  40009-3 0  9990
2 33063  48.4393 215.6983 0006618 161.8982 198.2169 14.79403902907346
